[{"OBJECT_NAME":"STARLINK-32700","OBJECT_ID":"2024-239L","EPOCH":"2026-03-09T15:11:01.523328","MEAN_MOTION":15.30183799,"ECCENTRICITY":0.0001212,"INCLINATION":53.161,"RA_OF_ASC_NODE":181.5169,"ARG_OF_PERICENTER":59.4537,"MEAN_ANOMALY":300.6583,"EPHEMERIS_TYPE":0,"CLASSIFICATION_TYPE":"U","NORAD_CAT_ID":62311,"ELEMENT_SET_NO":999,"REV_AT_EPOCH":6954,"BSTAR":0.0011327,"MEAN_MOTION_DOT":0.00033323,"MEAN_MOTION_DDOT":0},{"OBJECT_NAME":"OBJECT A","OBJECT_ID":"2025-234A","EPOCH":"2026-03-09T23:03:34.210368","MEAN_MOTION":15.32505956,"ECCENTRICITY":0.00130678,"INCLINATION":97.4388,"RA_OF_ASC_NODE":139.352,"ARG_OF_PERICENTER":148.634,"MEAN_ANOMALY":211.5684,"EPHEMERIS_TYPE":0,"CLASSIFICATION_TYPE":"U","NORAD_CAT_ID":66053,"ELEMENT_SET_NO":999,"REV_AT_EPOCH":2164,"BSTAR":0.0014840662,"MEAN_MOTION_DOT":0.00046856,"MEAN_MOTION_DDOT":0}]
